2026-027A               
1 67746U 26027A   26054.59279023  .00009263  00000+0  46604-3 0  9993
2 67746  97.4881 183.7592 0009350 246.0630 113.9624 15.17405347  1725
2026-027B               
1 67747U 26027B   26054.59203468  .00009154  00000+0  45927-3 0  9990
2 67747  97.4876 183.7593 0009494 248.7481 111.2739 15.17506414  1728
2026-027C               
1 67748U 26027C   26054.59110164  .00006404  00000+0  32152-3 0  9992
2 67748  97.4888 183.7623 0009858 251.7946 108.2214 15.17601566  1728
2026-027D               
1 67749U 26027D   26054.58983721  .00011051  00000+0  54869-3 0  9992
2 67749  97.4882 183.7633 0009667 256.4350 103.5807 15.17817271  1675
2026-027E               
1 67750U 26027E   26054.58977928  .00009671  00000+0  48086-3 0  9995
2 67750  97.4893 183.7652 0008813 257.9947 102.0299 15.17811116  1727
2026-027F               
1 67751U 26027F   26054.58913630  .00016170  00000+0  79737-3 0  9995
2 67751  97.4893 183.7665 0010000 257.5541 102.4574 15.17962792  1726
2026-027G               
1 67752U 26027G   26054.58913535  .00009988  00000+0  49513-3 0  9998
2 67752  97.4887 183.7653 0009154 260.2140  99.8060 15.17903868  1729
2026-027H               
1 67753U 26027H   26054.60704281  .00380265  23528-5  67185-3 0  9999
2 67753  97.5131 184.5901 0253706 297.1829  60.3772 15.63664160  1773
2026-027J               
1 67754U 26027J   26054.50935381  .00953164  24005-5  13832-2 0  9990
2 67754  97.5084 184.5664 0219331 296.5232  61.3691 15.73432875  1705
2026-028A               
1 67756U 26028A   26054.27947221 -.00000206  00000+0  00000+0 0  9997
2 67756   0.5043 288.7095 0042018 230.1443 201.2998  0.99527129   113
KUIPER-00159            
1 67764U 26030A   26054.63831634  .00029747  00000+0  86836-3 0  9994
2 67764  51.8856 286.8933 0004002  14.0051 346.1045 15.35073943  2938
KUIPER-00160            
1 67765U 26030B   26054.63891259  .00029806  00000+0  87195-3 0  9999
2 67765  51.8818 286.8929 0004235  23.5673 336.5506 15.35004908  2935
