CCSDS_OMM_VERS = 2.0
CREATION_DATE  = 
ORIGINATOR     = 

OBJECT_NAME    = 2026-027A
OBJECT_ID      = 2026-027A
CENTER_NAME    = EARTH
REF_FRAME      = TEME
TIME_SYSTEM    = UTC
MEAN_ELEMENT_THEORY = SGP/SGP4

EPOCH          = 2026-02-23T14:13:37.075872
MEAN_MOTION    = 15.17405347
ECCENTRICITY   = .00093509
INCLINATION    = 97.4881
RA_OF_ASC_NODE = 183.7592
ARG_OF_PERICENTER = 246.0630
MEAN_ANOMALY   = 113.9624

EPHEMERIS_TYPE = 0
CLASSIFICATION_TYPE = U
NORAD_CAT_ID   = 67746
ELEMENT_SET_NO = 999
REV_AT_EPOCH   = 172
BSTAR          = .46604485E-3
MEAN_MOTION_DOT = .9263E-4
MEAN_MOTION_DDOT = 0

CCSDS_OMM_VERS = 2.0
CREATION_DATE  = 
ORIGINATOR     = 

OBJECT_NAME    = 2026-027B
OBJECT_ID      = 2026-027B
CENTER_NAME    = EARTH
REF_FRAME      = TEME
TIME_SYSTEM    = UTC
MEAN_ELEMENT_THEORY = SGP/SGP4

EPOCH          = 2026-02-23T14:12:31.796352
MEAN_MOTION    = 15.17506414
ECCENTRICITY   = .00094941
INCLINATION    = 97.4876
RA_OF_ASC_NODE = 183.7593
ARG_OF_PERICENTER = 248.7481
MEAN_ANOMALY   = 111.2739

EPHEMERIS_TYPE = 0
CLASSIFICATION_TYPE = U
NORAD_CAT_ID   = 67747
ELEMENT_SET_NO = 999
REV_AT_EPOCH   = 172
BSTAR          = .45927487E-3
MEAN_MOTION_DOT = .9154E-4
MEAN_MOTION_DDOT = 0

CCSDS_OMM_VERS = 2.0
CREATION_DATE  = 
ORIGINATOR     = 

OBJECT_NAME    = 2026-027C
OBJECT_ID      = 2026-027C
CENTER_NAME    = EARTH
REF_FRAME      = TEME
TIME_SYSTEM    = UTC
MEAN_ELEMENT_THEORY = SGP/SGP4

EPOCH          = 2026-02-23T14:11:11.181696
MEAN_MOTION    = 15.17601566
ECCENTRICITY   = .00098585
INCLINATION    = 97.4888
RA_OF_ASC_NODE = 183.7623
ARG_OF_PERICENTER = 251.7946
MEAN_ANOMALY   = 108.2214

EPHEMERIS_TYPE = 0
CLASSIFICATION_TYPE = U
NORAD_CAT_ID   = 67748
ELEMENT_SET_NO = 999
REV_AT_EPOCH   = 172
BSTAR          = .32151506E-3
MEAN_MOTION_DOT = .6404E-4
MEAN_MOTION_DDOT = 0

CCSDS_OMM_VERS = 2.0
CREATION_DATE  = 
ORIGINATOR     = 

OBJECT_NAME    = 2026-027D
OBJECT_ID      = 2026-027D
CENTER_NAME    = EARTH
REF_FRAME      = TEME
TIME_SYSTEM    = UTC
MEAN_ELEMENT_THEORY = SGP/SGP4

EPOCH          = 2026-02-23T14:09:21.934944
MEAN_MOTION    = 15.17817271
ECCENTRICITY   = .00096671
INCLINATION    = 97.4882
RA_OF_ASC_NODE = 183.7633
ARG_OF_PERICENTER = 256.4350
MEAN_ANOMALY   = 103.5807

EPHEMERIS_TYPE = 0
CLASSIFICATION_TYPE = U
NORAD_CAT_ID   = 67749
ELEMENT_SET_NO = 999
REV_AT_EPOCH   = 167
BSTAR          = .54869374E-3
MEAN_MOTION_DOT = .11051E-3
MEAN_MOTION_DDOT = 0

CCSDS_OMM_VERS = 2.0
CREATION_DATE  = 
ORIGINATOR     = 

OBJECT_NAME    = 2026-027E
OBJECT_ID      = 2026-027E
CENTER_NAME    = EARTH
REF_FRAME      = TEME
TIME_SYSTEM    = UTC
MEAN_ELEMENT_THEORY = SGP/SGP4

EPOCH          = 2026-02-23T14:09:16.929792
MEAN_MOTION    = 15.17811116
ECCENTRICITY   = .00088139
INCLINATION    = 97.4893
RA_OF_ASC_NODE = 183.7652
ARG_OF_PERICENTER = 257.9947
MEAN_ANOMALY   = 102.0299

EPHEMERIS_TYPE = 0
CLASSIFICATION_TYPE = U
NORAD_CAT_ID   = 67750
ELEMENT_SET_NO = 999
REV_AT_EPOCH   = 172
BSTAR          = .48086172E-3
MEAN_MOTION_DOT = .9671E-4
MEAN_MOTION_DDOT = 0

CCSDS_OMM_VERS = 2.0
CREATION_DATE  = 
ORIGINATOR     = 

OBJECT_NAME    = 2026-027F
OBJECT_ID      = 2026-027F
CENTER_NAME    = EARTH
REF_FRAME      = TEME
TIME_SYSTEM    = UTC
MEAN_ELEMENT_THEORY = SGP/SGP4

EPOCH          = 2026-02-23T14:08:21.376320
MEAN_MOTION    = 15.17962792
ECCENTRICITY   = .00100005
INCLINATION    = 97.4893
RA_OF_ASC_NODE = 183.7665
ARG_OF_PERICENTER = 257.5541
MEAN_ANOMALY   = 102.4574

EPHEMERIS_TYPE = 0
CLASSIFICATION_TYPE = U
NORAD_CAT_ID   = 67751
ELEMENT_SET_NO = 999
REV_AT_EPOCH   = 172
BSTAR          = .79737152E-3
MEAN_MOTION_DOT = .1617E-3
MEAN_MOTION_DDOT = 0

CCSDS_OMM_VERS = 2.0
CREATION_DATE  = 
ORIGINATOR     = 

OBJECT_NAME    = 2026-027G
OBJECT_ID      = 2026-027G
CENTER_NAME    = EARTH
REF_FRAME      = TEME
TIME_SYSTEM    = UTC
MEAN_ELEMENT_THEORY = SGP/SGP4

EPOCH          = 2026-02-23T14:08:21.294240
MEAN_MOTION    = 15.17903868
ECCENTRICITY   = .0009154
INCLINATION    = 97.4887
RA_OF_ASC_NODE = 183.7653
ARG_OF_PERICENTER = 260.2140
MEAN_ANOMALY   = 99.8060

EPHEMERIS_TYPE = 0
CLASSIFICATION_TYPE = U
NORAD_CAT_ID   = 67752
ELEMENT_SET_NO = 999
REV_AT_EPOCH   = 172
BSTAR          = .49513133E-3
MEAN_MOTION_DOT = .9988E-4
MEAN_MOTION_DDOT = 0

CCSDS_OMM_VERS = 2.0
CREATION_DATE  = 
ORIGINATOR     = 

OBJECT_NAME    = 2026-027H
OBJECT_ID      = 2026-027H
CENTER_NAME    = EARTH
REF_FRAME      = TEME
TIME_SYSTEM    = UTC
MEAN_ELEMENT_THEORY = SGP/SGP4

EPOCH          = 2026-02-23T14:34:08.498784
MEAN_MOTION    = 15.63664160
ECCENTRICITY   = .02537062
INCLINATION    = 97.5131
RA_OF_ASC_NODE = 184.5901
ARG_OF_PERICENTER = 297.1829
MEAN_ANOMALY   = 60.3772

EPHEMERIS_TYPE = 0
CLASSIFICATION_TYPE = U
NORAD_CAT_ID   = 67753
ELEMENT_SET_NO = 999
REV_AT_EPOCH   = 177
BSTAR          = .67185223E-3
MEAN_MOTION_DOT = .380265E-2
MEAN_MOTION_DDOT = .2352788E-5

CCSDS_OMM_VERS = 2.0
CREATION_DATE  = 
ORIGINATOR     = 

OBJECT_NAME    = 2026-027J
OBJECT_ID      = 2026-027J
CENTER_NAME    = EARTH
REF_FRAME      = TEME
TIME_SYSTEM    = UTC
MEAN_ELEMENT_THEORY = SGP/SGP4

EPOCH          = 2026-02-23T12:13:28.169184
MEAN_MOTION    = 15.73432875
ECCENTRICITY   = .02193314
INCLINATION    = 97.5084
RA_OF_ASC_NODE = 184.5664
ARG_OF_PERICENTER = 296.5232
MEAN_ANOMALY   = 61.3691

EPHEMERIS_TYPE = 0
CLASSIFICATION_TYPE = U
NORAD_CAT_ID   = 67754
ELEMENT_SET_NO = 999
REV_AT_EPOCH   = 170
BSTAR          = .13832E-2
MEAN_MOTION_DOT = .953164E-2
MEAN_MOTION_DDOT = .2400547E-5

CCSDS_OMM_VERS = 2.0
CREATION_DATE  = 
ORIGINATOR     = 

OBJECT_NAME    = 2026-028A
OBJECT_ID      = 2026-028A
CENTER_NAME    = EARTH
REF_FRAME      = TEME
TIME_SYSTEM    = UTC
MEAN_ELEMENT_THEORY = SGP/SGP4

EPOCH          = 2026-02-23T06:42:26.398944
MEAN_MOTION    = 0.99527129
ECCENTRICITY   = .00420183
INCLINATION    = 0.5043
RA_OF_ASC_NODE = 288.7095
ARG_OF_PERICENTER = 230.1443
MEAN_ANOMALY   = 201.2998

EPHEMERIS_TYPE = 0
CLASSIFICATION_TYPE = U
NORAD_CAT_ID   = 67756
ELEMENT_SET_NO = 999
REV_AT_EPOCH   = 11
BSTAR          = 0
MEAN_MOTION_DOT = -.206E-5
MEAN_MOTION_DDOT = 0

CCSDS_OMM_VERS = 2.0
CREATION_DATE  = 
ORIGINATOR     = 

OBJECT_NAME    = KUIPER-00159
OBJECT_ID      = 2026-030A
CENTER_NAME    = EARTH
REF_FRAME      = TEME
TIME_SYSTEM    = UTC
MEAN_ELEMENT_THEORY = SGP/SGP4

EPOCH          = 2026-02-23T15:19:10.531776
MEAN_MOTION    = 15.35073943
ECCENTRICITY   = .00040027
INCLINATION    = 51.8856
RA_OF_ASC_NODE = 286.8933
ARG_OF_PERICENTER = 14.0051
MEAN_ANOMALY   = 346.1045

EPHEMERIS_TYPE = 0
CLASSIFICATION_TYPE = U
NORAD_CAT_ID   = 67764
ELEMENT_SET_NO = 999
REV_AT_EPOCH   = 293
BSTAR          = .86835855E-3
MEAN_MOTION_DOT = .29747E-3
MEAN_MOTION_DDOT = 0

CCSDS_OMM_VERS = 2.0
CREATION_DATE  = 
ORIGINATOR     = 

OBJECT_NAME    = KUIPER-00160
OBJECT_ID      = 2026-030B
CENTER_NAME    = EARTH
REF_FRAME      = TEME
TIME_SYSTEM    = UTC
MEAN_ELEMENT_THEORY = SGP/SGP4

EPOCH          = 2026-02-23T15:20:02.047776
MEAN_MOTION    = 15.35004908
ECCENTRICITY   = .00042357
INCLINATION    = 51.8818
RA_OF_ASC_NODE = 286.8929
ARG_OF_PERICENTER = 23.5673
MEAN_ANOMALY   = 336.5506

EPHEMERIS_TYPE = 0
CLASSIFICATION_TYPE = U
NORAD_CAT_ID   = 67765
ELEMENT_SET_NO = 999
REV_AT_EPOCH   = 293
BSTAR          = .87194962E-3
MEAN_MOTION_DOT = .29806E-3
MEAN_MOTION_DDOT = 0

